OPTICUBE 04             
1 41851U 16067D   24261.41221677  .00015561  00000+0  11278-2 0  9992
2 41851  98.0852  70.3252 0018664 106.4857 253.8420 15.03908725429096
AEROCUBE 8D             
1 41852U 16067E   24261.54081296  .00036265  00000+0  22188-2 0  9994
2 41852  98.1131  75.9587 0005187 149.8161 210.3367 15.10117103429329
AEROCUBE 8C             
1 41853U 16067F   24261.42399170  .00034428  00000+0  21071-2 0  9994
2 41853  98.0952  74.1875 0007995  88.9109 271.3035 15.10103650429292
PROMETHEUS 2-1          
1 41854U 16067G   24261.57419851  .00093334  00000+0  40017-2 0  9992
2 41854  98.1010  83.3808 0011278 101.2605 258.9897 15.22294313429765
PROMETHEUS 2-3          
1 41855U 16067H   24261.57316566  .00091185  00000+0  39210-2 0  9997
2 41855  98.0947  82.7786 0009657 111.4604 248.7661 15.22219940429761
CORVUS BC2              
1 42846U 17042X   24261.48832582  .00018625  00000+0  15373-2 0  9995
2 42846  97.3747  81.5343 0008201 105.0423 255.1709 14.99007559391262
CORVUS BC1              
1 42847U 17042Y   24261.50660794  .00019449  00000+0  15983-2 0  9995
2 42847  97.3734  81.9640 0008919 108.0127 252.2070 14.99162030391280
MIRATA                  
1 43015U 17073C   24261.62389551  .00106404  00000+0  43024-2 0  9994
2 43015  97.5794 145.5829 0150458 304.2829  54.4232 15.14483665370284
MAKERSAT 0              
1 43016U 17073D   24261.62645800  .00069441  00000+0  36498-2 0  9993
2 43016  97.5557 138.1639 0181967 329.7274  29.3535 15.02211043369779
GOMX-4B                 
1 43196U 18015E   24261.56714092  .00560883  12702-3  16611-2 0  9999
2 43196  97.5997  83.7064 0007320 292.4507  67.5991 15.92495243370056
SIRION PATHFINDER-2     
1 43759U 18099B   24261.40393938  .00028058  00000+0  19997-2 0  9998
2 43759  97.5202 315.0026 0009723 343.2961  16.7944 15.04499256316366
CORVUS BC4              
1 43767U 18099K   24261.61671696  .00022260  00000+0  16255-2 0  9993
2 43767  97.5046 312.1276 0010603  37.7042 322.4925 15.03629041316272
MOVE-II                 
1 43780U 18099Y   24261.41292439  .00116665  00000+0  49596-2 0  9997
2 43780  97.5118 323.8600 0004882  26.3378 333.8105 15.22517602316923
SPACEBEE-7              
1 43816U 18099BL  24260.97483596  .00030684  00000+0  15952-2 0  9998
2 43816  97.5399 323.7548 0007851 334.5291  25.5554 15.15984563316290
SPACEBEE-6              
1 43818U 18099BN  24261.16766266  .00227851  00000+0  65558-2 0  9991
2 43818  97.5306 331.2289 0006072 306.4616  53.6066 15.34826226316954
SHIELDS 1               
1 43850U 18104B   24261.36028514  .00064770  00000+0  15147-2 0  9991
2 43850  85.0222 220.3736 0013957  88.5541 271.7311 15.41798515320340
SONATE                  
1 44400U 19038Q   24261.53258727  .00093435  00000+0  22736-2 0  9992
2 44400  97.7155 260.1455 0017220 130.1741 230.1015 15.40448016288261
LUCKY-7                 
1 44406U 19038W   24261.26350059  .00250696  00000+0  33153-2 0  9998
2 44406  97.7014 265.6743 0014608 115.4045 244.8724 15.57363183288629
DUCHIFAT-3              
1 44854U 19089C   24261.25131885  .00076381  00000+0  33080-2 0  9990
2 44854  36.9542 208.3202 0006933 186.3136 173.7526 15.21273955262272
M2 PATHFINDER           
1 45727U 20037E   24261.45472933  .00017459  00000+0  14657-2 0  9999
2 45727  97.7833  77.4984 0011100 166.9667 193.1844 14.98351924229758
NETSAT-4                
1 46504U 20068U   24261.44949641  .00050823  00000+0  24709-2 0  9992
2 46504  97.8137 221.2970 0011438  57.0017 303.2314 15.18180943218159
NETSAT-3                
1 46505U 20068V   24261.33841941  .00051374  00000+0  25387-2 0  9990
2 46505  97.8116 220.5717 0011258  65.3996 294.8408 15.17610565218129
NETSAT-1                
1 46506U 20068W   24261.56848313  .00037442  00000+0  19757-2 0  9990
2 46506  97.8140 220.0361 0010238  72.7838 287.4513 15.15395277218102
NETSAT-2                
1 46507U 20068X   24261.40351462  .00050407  00000+0  24520-2 0  9998
2 46507  97.8126 220.8545 0009673  78.1996 282.0321 15.18180934218096
WILDTRACKCUBE-SIMBA     
1 47941U 21022K   24261.60217421  .00075763  00000+0  29373-2 0  9993
2 47941  97.4467 157.7165 0014524 168.3725 191.7851 15.25736991192534
GRBALPHA                
1 47959U 21022AD  24261.59487217  .00141186  00000+0  44375-2 0  9994
2 47959  97.4465 160.2883 0013675 155.2066 204.9836 15.32316599191520
BCCSAT-1                
1 48041U 21022AK  24261.29574334  .02742336  17900-1  33061-2 0  9996
2 48041  97.4332 173.6372 0009913 150.6586 209.5257 16.12810618192331
BEESAT-8                
1 48085U 21022AP  24261.19338918  .00170271  00000+0  39814-2 0  9993
2 48085  97.4680 164.6763 0012728 138.7716 221.4494 15.41416595192006
LEDSAT                  
1 49069U 21073D   24261.25795644  .00078879  00000+0  26796-2 0  9998
2 49069  97.4293 332.0189 0016150 318.6371  41.3645 15.30048508170502
ROBUSTA-1F (MTCUBE 2)   
1 53109U 22080E   24261.07550722 -.00000003  00000+0  00000+0 0  9995
2 53109  70.1271 160.1783 0007916  67.9390 292.2109  6.42583990 51064
SITRO-AIS 5 (KATYS)     
1 57176U 23091L   24261.56272179  .00042793  00000+0  25435-2 0  9990
2 57176  97.6033 313.0452 0017666 162.2311 197.9540 15.11005013 67438
SITRO-AIS 6 (CHIRKIN)   
1 57192U 23091AC  24261.54457672  .00040572  00000+0  24098-2 0  9996
2 57192  97.6033 313.0571 0017624 161.3225 198.8655 15.11044981 67430
SITRO-AIS 8 (ANOKHIN)   
1 57193U 23091AD  24261.55468558  .00055487  00000+0  32429-2 0  9991
2 57193  97.6031 313.1872 0017275 162.6103 197.5722 15.11545886 67447
SITRO-AIS 7 (FARTUSHNIY)
1 57194U 23091AE  24261.55284278  .00041145  00000+0  24482-2 0  9993
2 57194  97.6033 313.0382 0017398 162.2673 197.9167 15.10980151 67432
SITRO-AIS 10 (BURDAEV)  
1 57199U 23091AK  24261.54122625  .00057936  00000+0  32017-2 0  9992
2 57199  97.6043 314.3626 0012976 149.3902 210.8088 15.13600068 67516
SITRO-AIS 9 (SHCHUKIN)  
1 57201U 23091AM  24261.54093288  .00058052  00000+0  32111-2 0  9993
2 57201  97.6039 314.3342 0012939 149.3114 210.8877 15.13566568 67516
SITRO-AIS 12 (SMIRENNIY)
1 57204U 23091AQ  24261.55773810  .00058210  00000+0  32020-2 0  9998
2 57204  97.6048 314.5194 0012754 144.1732 216.0357 15.13766310 67529
SITRO-AIS 11 (SHEFFER)  
1 57208U 23091AU  24261.60352778  .00058227  00000+0  31915-2 0  9994
2 57208  97.6045 314.5993 0012745 144.2203 215.9885 15.13894185 67538
ROBUSTA-1E (ENSO)       
1 58470U 23185J   24261.56832078  .00085109  00000+0  30535-2 0  9997
2 58470  97.4172 327.5485 0010084 313.1134  46.9261 15.28310143 44227
SITRO-AIS 29            
1 59052U 24039B   24261.59519528  .00145724  00000+0  42113-2 0  9993
2 59052  97.3986 223.2689 0011621 236.1537 123.8601 15.34991166 30734
SITRO-AIS 30            
1 59053U 24039C   24261.53629352  .00140336  00000+0  40888-2 0  9996
2 59053  97.3984 223.1894 0011850 238.0045 122.0047 15.34754121 30710
SITRO-AIS 31            
1 59054U 24039D   24261.58450785  .00141619  00000+0  40943-2 0  9991
2 59054  97.3986 223.2787 0011595 237.3813 122.6311 15.34996281 30744
SITRO-AIS 33            
1 59055U 24039E   24261.56876035  .00142309  00000+0  40997-2 0  9996
2 59055  97.3991 223.3084 0011236 238.0374 121.9777 15.35108751 30739
SITRO-AIS 35            
1 59056U 24039F   24261.56392058  .00142543  00000+0  41038-2 0  9992
2 59056  97.3990 223.3108 0011032 237.7007 122.3169 15.35130112 30735
SITRO-AIS 32            
1 59057U 24039G   24261.57874074  .00144820  00000+0  41919-2 0  9995
2 59057  97.3992 223.2941 0011342 238.5633 121.4501 15.34947296 30738
SITRO-AIS 34            
1 59058U 24039H   24261.56949605  .00140798  00000+0  40533-2 0  9999
2 59058  97.3991 223.3091 0011101 238.2444 121.7718 15.35138781 30730
SITRO-AIS 36            
1 59059U 24039J   24261.55455648  .00139972  00000+0  40186-2 0  9994
2 59059  97.3990 223.3239 0010960 237.6729 122.3454 15.35229355 30737
SITRO-AIS 49            
1 59060U 24039K   24261.55917930  .00096701  00000+0  28033-2 0  9992
2 59060  97.3990 223.3180 0010989 237.1684 122.8502 15.35108881 30739
SITRO-AIS 50            
1 59061U 24039L   24261.60378686  .00138956  00000+0  39670-2 0  9996
2 59061  97.3986 223.4090 0010854 236.4583 123.5624 15.35411984 30742
SITRO-AIS 51            
1 59062U 24039M   24261.60326102  .00145931  00000+0  41580-2 0  9997
2 59062  97.3987 223.4088 0010868 236.6747 123.3457 15.35443892 30745
SITRO-AIS 52            
1 59063U 24039N   24261.59074564  .00146480  00000+0  41564-2 0  9990
2 59063  97.3987 223.4283 0010672 236.9132 123.1088 15.35573801 30749
SITRO-AIS 25            
1 59066U 24039R   24261.61925853  .00029620  00000+0  27209-2 0  9998
2 59066  95.3957 159.9991 0168805  25.6931 335.2555 14.84458836 29812
SITRO-AIS 26            
1 59067U 24039S   24261.55416649  .00030486  00000+0  28058-2 0  9995
2 59067  95.3956 159.9503 0168848  25.9633 334.9936 14.84378668 29802
SITRO-AIS 27            
1 59068U 24039T   24261.60096224  .00031929  00000+0  29252-2 0  9995
2 59068  95.3958 160.0200 0168344  25.5486 335.3934 14.84597260 29810
SITRO-AIS 28            
1 59071U 24039U   24261.59569644  .00031654  00000+0  28977-2 0  9996
2 59071  95.3959 160.0267 0168160  25.5289 335.4116 14.84648836 29814
GRBBETA                 
1 60237U 24128C   24261.58343621  .00020307  00000+0  17187-2 0  9999
2 60237  61.9928 280.4652 0017590 338.2091  21.8247 14.97962357 10435
OOV-CUBE (TUBSAT-30)    
1 60240U 24128F   24261.54748295  .00014276  00000+0  12421-2 0  9999
2 60240  61.9967 280.8716 0015568 329.3396  30.6781 14.97106484 10431
ROBUSTA-3A (MEDITERRAN*)
1 60243U 24128J   24261.42767235  .00031569  00000+0  27034-2 0  9994
2 60243  61.9902 281.3403 0016949 318.8766  41.1044 14.97317638 10412
